start=new Date('2022-04-03T00:00:00.000Z').valueOf();
sats=[{"ARG_OF_PERICENTER":"72.4566","OBJECT_TYPE":"PAYLOAD","LAUNCH_DATE":"2021-03-24","ELEMENT_SET_NO":"999","INCLINATION":"53.0544","COUNTRY_CODE":"US","EPOCH":"2022-04-02T20:34:18.624000","MEAN_MOTION_DOT":"-0.00004804","NORAD_CAT_ID":"47994","CENTER_NAME":"EARTH","FILE":"3385473","GP_ID":"200323289","CLASSIFICATION_TYPE":"U","RA_OF_ASC_NODE":"281.8121","APOAPSIS":"548.374","REF_FRAME":"TEME","MEAN_ANOMALY":"287.6597","SITE":"AFETR","OBJECT_NAME":"STARLINK-2290","PERIOD":"95.593","PERIAPSIS":"546.163","TLE_LINE1":"1 47994U 21024T   22092.85716000 -.00004804  00000-0 -30398-3 0  9998","OBJECT_ID":"2021-024T","SEMIMAJOR_AXIS":"6925.403","DECAY_DATE":null,"ECCENTRICITY":"0.00015960","EPHEMERIS_TYPE":"0","MEAN_MOTION":"15.06382121","MEAN_MOTION_DDOT":"0.0000000000000","TIME_SYSTEM":"UTC","TLE_LINE2":"2 47994  53.0544 281.8121 0001596  72.4566 287.6597 15.06382121 58286","RCS_SIZE":"LARGE","MEAN_ELEMENT_THEORY":"SGP4","BSTAR":"-0.00030398000000","REV_AT_EPOCH":"5828"},{"TIME_SYSTEM":"UTC","MEAN_MOTION_DDOT":"0.0000000000000","REV_AT_EPOCH":"5831","TLE_LINE2":"2 47995  53.0552 246.9180 0001535  65.8833 294.2316 15.06411866 58315","RCS_SIZE":"LARGE","BSTAR":"0.00023628000000","MEAN_ELEMENT_THEORY":"SGP4","OBJECT_ID":"2021-024U","TLE_LINE1":"1 47995U 21024U   22092.83547067  .00003241  00000-0  23628-3 0  9992","OBJECT_NAME":"STARLINK-2309","PERIOD":"95.591","PERIAPSIS":"546.114","MEAN_MOTION":"15.06411866","EPHEMERIS_TYPE":"0","DECAY_DATE":null,"ECCENTRICITY":"0.00015350","SEMIMAJOR_AXIS":"6925.312","GP_ID":"200296898","FILE":"3385154","CENTER_NAME":"EARTH","SITE":"AFETR","REF_FRAME":"TEME","MEAN_ANOMALY":"294.2316","APOAPSIS":"548.240","CLASSIFICATION_TYPE":"U","RA_OF_ASC_NODE":"246.9180","OBJECT_TYPE":"PAYLOAD","ARG_OF_PERICENTER":"65.8833","NORAD_CAT_ID":"47995","EPOCH":"2022-04-02T20:03:04.665888","MEAN_MOTION_DOT":"0.00003241","ELEMENT_SET_NO":"999","COUNTRY_CODE":"US","INCLINATION":"53.0552","LAUNCH_DATE":"2021-03-24"},{"NORAD_CAT_ID":"47996","EPOCH":"2022-04-02T22:00:01.999584","MEAN_MOTION_DOT":"-0.00205075","ELEMENT_SET_NO":"999","COUNTRY_CODE":"US","INCLINATION":"53.0440","LAUNCH_DATE":"2021-03-24","OBJECT_TYPE":"PAYLOAD","ARG_OF_PERICENTER":"154.1163","SITE":"AFETR","MEAN_ANOMALY":"322.9817","REF_FRAME":"TEME","APOAPSIS":"457.159","CLASSIFICATION_TYPE":"U","RA_OF_ASC_NODE":"182.9809","FILE":"3385473","GP_ID":"200322788","CENTER_NAME":"EARTH","EPHEMERIS_TYPE":"0","MEAN_MOTION":"15.36696666","DECAY_DATE":null,"ECCENTRICITY":"0.00018600","SEMIMAJOR_AXIS":"6834.023","OBJECT_ID":"2021-024V","TLE_LINE1":"1 47996U 21024V   22092.91668981 -.00205075  00000-0 -57815-2 0  9996","OBJECT_NAME":"STARLINK-2260","PERIOD":"93.707","PERIAPSIS":"454.616","REV_AT_EPOCH":"365","TLE_LINE2":"2 47996  53.0440 182.9809 0001860 154.1163 322.9817 15.36696666  3656","MEAN_ELEMENT_THEORY":"SGP4","RCS_SIZE":"LARGE","BSTAR":"-0.00578150000000","TIME_SYSTEM":"UTC","MEAN_MOTION_DDOT":"0.0000000000000"},{"SITE":"AFETR","REF_FRAME":"TEME","MEAN_ANOMALY":"291.9526","APOAPSIS":"548.233","RA_OF_ASC_NODE":"281.9020","CLASSIFICATION_TYPE":"U","FILE":"3385473","GP_ID":"200323039","CENTER_NAME":"EARTH","NORAD_CAT_ID":"47997","MEAN_MOTION_DOT":"0.00000002","EPOCH":"2022-04-02T20:07:45.510816","INCLINATION":"53.0520","COUNTRY_CODE":"US","ELEMENT_SET_NO":"999","LAUNCH_DATE":"2021-03-24","OBJECT_TYPE":"PAYLOAD","ARG_OF_PERICENTER":"68.1618","REV_AT_EPOCH":"5834","RCS_SIZE":"LARGE","BSTAR":"0.00001901300000","MEAN_ELEMENT_THEORY":"SGP4","TLE_LINE2":"2 47997  53.0520 281.9020 0001454  68.1618 291.9526 15.06396083 58344","TIME_SYSTEM":"UTC","MEAN_MOTION_DDOT":"0.0000000000000","MEAN_MOTION":"15.06396083","EPHEMERIS_TYPE":"0","ECCENTRICITY":"0.00014540","DECAY_DATE":null,"SEMIMAJOR_AXIS":"6925.361","OBJECT_ID":"2021-024W","TLE_LINE1":"1 47997U 21024W   22092.83872119  .00000002  00000-0  19013-4 0  9999","PERIAPSIS":"546.219","PERIOD":"95.592","OBJECT_NAME":"STARLINK-2266"},{"OBJECT_NAME":"STARLINK-2296","PERIOD":"95.591","PERIAPSIS":"546.052","OBJECT_ID":"2021-024X","TLE_LINE1":"1 47998U 21024X   22092.82349134  .00005592  00000-0  39387-3 0  9999","DECAY_DATE":null,"ECCENTRICITY":"0.00016120","SEMIMAJOR_AXIS":"6925.304","MEAN_MOTION":"15.06414597","EPHEMERIS_TYPE":"0","MEAN_MOTION_DDOT":"0.0000000000000","TIME_SYSTEM":"UTC","REV_AT_EPOCH":"5863","TLE_LINE2":"2 47998  53.0554 256.9602 0001612  63.1966 296.9188 15.06414597 58639","MEAN_ELEMENT_THEORY":"SGP4","RCS_SIZE":"LARGE","BSTAR":"0.00039387000000","OBJECT_TYPE":"PAYLOAD","ARG_OF_PERICENTER":"63.1966","ELEMENT_SET_NO":"999","INCLINATION":"53.0554","COUNTRY_CODE":"US","LAUNCH_DATE":"2021-03-24","NORAD_CAT_ID":"47998","EPOCH":"2022-04-02T19:45:49.651776","MEAN_MOTION_DOT":"0.00005592","FILE":"3385473","GP_ID":"200323790","CENTER_NAME":"EARTH","APOAPSIS":"548.285","CLASSIFICATION_TYPE":"U","RA_OF_ASC_NODE":"256.9602","SITE":"AFETR","MEAN_ANOMALY":"296.9188","REF_FRAME":"TEME"},{"INCLINATION":"53.0556","COUNTRY_CODE":"US","ELEMENT_SET_NO":"999","LAUNCH_DATE":"2021-03-24","NORAD_CAT_ID":"47999","MEAN_MOTION_DOT":"-0.00042152","EPOCH":"2022-04-02T22:00:01.999584","OBJECT_TYPE":"PAYLOAD","ARG_OF_PERICENTER":"56.5018","APOAPSIS":"548.245","RA_OF_ASC_NODE":"226.5522","CLASSIFICATION_TYPE":"U","SITE":"AFETR","MEAN_ANOMALY":"234.3644","REF_FRAME":"TEME","GP_ID":"200322038","FILE":"3385473","CENTER_NAME":"EARTH","ECCENTRICITY":"0.00015230","DECAY_DATE":null,"SEMIMAJOR_AXIS":"6925.325","MEAN_MOTION":"15.06407566","EPHEMERIS_TYPE":"0","PERIOD":"95.592","PERIAPSIS":"546.136","OBJECT_NAME":"STARLINK-2218","OBJECT_ID":"2021-024Y","TLE_LINE1":"1 47999U 21024Y   22092.91668981 -.00042152  00000-0 -28271-2 0  9998","REV_AT_EPOCH":"359","RCS_SIZE":"LARGE","MEAN_ELEMENT_THEORY":"SGP4","BSTAR":"-0.00282710000000","TLE_LINE2":"2 47999  53.0556 226.5522 0001523  56.5018 234.3644 15.06407566  3597","MEAN_MOTION_DDOT":"0.0000000000000","TIME_SYSTEM":"UTC"},{"REV_AT_EPOCH":"361","RCS_SIZE":"LARGE","BSTAR":"-0.00823660000000","MEAN_ELEMENT_THEORY":"SGP4","TLE_LINE2":"2 48000  53.0546 211.5360 0002138  32.0648  21.4256 15.06440739  3611","MEAN_MOTION_DDOT":"0.0000000000000","TIME_SYSTEM":"UTC","ECCENTRICITY":"0.00021380","DECAY_DATE":null,"SEMIMAJOR_AXIS":"6925.224","MEAN_MOTION":"15.06440739","EPHEMERIS_TYPE":"0","PERIAPSIS":"545.608","PERIOD":"95.590","OBJECT_NAME":"STARLINK-2270","OBJECT_ID":"2021-024Z","TLE_LINE1":"1 48000U 21024Z   22092.91668981 -.00121037  00000-0 -82366-2 0  9997","APOAPSIS":"548.569","RA_OF_ASC_NODE":"211.5360","CLASSIFICATION_TYPE":"U","SITE":"AFETR","MEAN_ANOMALY":"21.4256","REF_FRAME":"TEME","GP_ID":"200322288","FILE":"3385473","CENTER_NAME":"EARTH","INCLINATION":"53.0546","COUNTRY_CODE":"US","ELEMENT_SET_NO":"999","LAUNCH_DATE":"2021-03-24","NORAD_CAT_ID":"48000","MEAN_MOTION_DOT":"-0.00121037","EPOCH":"2022-04-02T22:00:01.999584","OBJECT_TYPE":"PAYLOAD","ARG_OF_PERICENTER":"32.0648"},{"ARG_OF_PERICENTER":"55.1083","OBJECT_TYPE":"PAYLOAD","LAUNCH_DATE":"2021-03-24","INCLINATION":"53.0544","COUNTRY_CODE":"US","ELEMENT_SET_NO":"999","MEAN_MOTION_DOT":"-0.00066782","EPOCH":"2022-04-02T22:00:01.999584","NORAD_CAT_ID":"48002","CENTER_NAME":"EARTH","GP_ID":"200323540","FILE":"3385473","RA_OF_ASC_NODE":"231.5376","CLASSIFICATION_TYPE":"U","APOAPSIS":"548.284","REF_FRAME":"TEME","MEAN_ANOMALY":"268.2079","SITE":"AFETR","PERIAPSIS":"546.081","PERIOD":"95.591","OBJECT_NAME":"STARLINK-2265","TLE_LINE1":"1 48002U 21024AB  22092.91668981 -.00066782  00000-0 -45054-2 0  9997","OBJECT_ID":"2021-024AB","SEMIMAJOR_AXIS":"6925.318","ECCENTRICITY":"0.00015910","DECAY_DATE":null,"MEAN_MOTION":"15.06410089","EPHEMERIS_TYPE":"0","MEAN_MOTION_DDOT":"0.0000000000000","TIME_SYSTEM":"UTC","RCS_SIZE":"LARGE","BSTAR":"-0.00450540000000","MEAN_ELEMENT_THEORY":"SGP4","TLE_LINE2":"2 48002  53.0544 231.5376 0001591  55.1083 268.2079 15.06410089  3597","REV_AT_EPOCH":"359"},{"CENTER_NAME":"EARTH","FILE":"3385473","GP_ID":"200323290","MEAN_ANOMALY":"294.7522","REF_FRAME":"TEME","SITE":"AFETR","RA_OF_ASC_NODE":"306.7300","CLASSIFICATION_TYPE":"U","APOAPSIS":"548.332","ARG_OF_PERICENTER":"65.3632","OBJECT_TYPE":"PAYLOAD","MEAN_MOTION_DOT":"-0.00001046","EPOCH":"2022-04-02T21:00:10.782720","NORAD_CAT_ID":"48003","LAUNCH_DATE":"2021-03-24","COUNTRY_CODE":"US","INCLINATION":"53.0561","ELEMENT_SET_NO":"999","TIME_SYSTEM":"UTC","MEAN_MOTION_DDOT":"0.0000000000000","MEAN_ELEMENT_THEORY":"SGP4","RCS_SIZE":"LARGE","BSTAR":"-0.00005135100000","TLE_LINE2":"2 48003  53.0561 306.7300 0001586  65.3632 294.7522 15.06393345 57935","REV_AT_EPOCH":"5793","TLE_LINE1":"1 48003U 21024AC  22092.87512480 -.00001046  00000-0 -51351-4 0  9996","OBJECT_ID":"2021-024AC","PERIOD":"95.593","PERIAPSIS":"546.136","OBJECT_NAME":"STARLINK-2263","MEAN_MOTION":"15.06393345","EPHEMERIS_TYPE":"0","SEMIMAJOR_AXIS":"6925.369","ECCENTRICITY":"0.00015860","DECAY_DATE":null},{"TLE_LINE2":"2 48005  53.0531 276.8324 0001700  60.0601 300.0556 15.06392796 58357","RCS_SIZE":"LARGE","MEAN_ELEMENT_THEORY":"SGP4","BSTAR":"-0.00000196990000","REV_AT_EPOCH":"5835","MEAN_MOTION_DDOT":"0.0000000000000","TIME_SYSTEM":"UTC","SEMIMAJOR_AXIS":"6925.371","DECAY_DATE":null,"ECCENTRICITY":"0.00017000","MEAN_MOTION":"15.06392796","EPHEMERIS_TYPE":"0","OBJECT_NAME":"STARLINK-2254","PERIAPSIS":"546.058","PERIOD":"95.593","TLE_LINE1":"1 48005U 21024AE  22092.85209073 -.00000311  00000-0 -19699-5 0  9991","OBJECT_ID":"2021-024AE","CLASSIFICATION_TYPE":"U","RA_OF_ASC_NODE":"276.8324","APOAPSIS":"548.413","MEAN_ANOMALY":"300.0556","REF_FRAME":"TEME","SITE":"AFETR","CENTER_NAME":"EARTH","GP_ID":"200322539","FILE":"3385473","LAUNCH_DATE":"2021-03-24","ELEMENT_SET_NO":"999","COUNTRY_CODE":"US","INCLINATION":"53.0531","EPOCH":"2022-04-02T20:27:00.639072","MEAN_MOTION_DOT":"-0.00000311","NORAD_CAT_ID":"48005","ARG_OF_PERICENTER":"60.0601","OBJECT_TYPE":"PAYLOAD"}];
